OBJECT_NAME,OBJECT_ID,EPOCH,MEAN_MOTION,ECCENTRICITY,INCLINATION,RA_OF_ASC_NODE,ARG_OF_PERICENTER,MEAN_ANOMALY,EPHEMERIS_TYPE,CLASSIFICATION_TYPE,NORAD_CAT_ID,ELEMENT_SET_NO,REV_AT_EPOCH,BSTAR,MEAN_MOTION_DOT,MEAN_MOTION_DDOT
SL-8 R/B,1985-006B,2026-06-25T04:01:28.100640,14.37838090,.00190454,74.0460,63.3789,309.2657,171.6856,0,U,15483,999,16947,.65679406E-4,.172E-5,0
SL-12 R/B(2),1985-042D,2026-06-25T06:04:24.549888,14.22007137,.00367454,71.1066,220.4753,315.6457,111.9897,0,U,15772,999,12968,.58277447E-4,.82E-6,0
SL-14 R/B,1985-069B,2026-06-25T05:55:20.833824,14.86521290,.00184423,82.5273,283.7861,191.3949,168.6853,0,U,15945,999,18881,.44767439E-4,.422E-5,0
SL-16 R/B,1985-097B,2026-06-24T12:44:22.761600,14.16612263,.00053909,71.0034,275.6171,95.5019,275.5350,0,U,16182,999,10236,.15076552E-3,.253E-5,0
SL-14 R/B,1986-006B,2026-06-25T04:39:24.522912,14.86952555,.00747029,82.5266,158.5782,276.4018,82.8696,0,U,16496,999,16518,.51400718E-4,.509E-5,0
COSMOS 1743,1986-034A,2026-06-24T20:56:14.982432,15.67599206,.0004417,82.5275,320.5574,241.2941,118.7876,0,U,16719,999,19699,.49438157E-3,.54072E-3,0
SL-14 R/B,1986-046B,2026-06-25T04:01:28.035840,14.85676206,.002189,82.4820,338.6334,230.3566,129.5719,0,U,16792,999,14236,.44605342E-4,.412E-5,0
SL-14 R/B,1986-055B,2026-06-25T02:28:58.593216,14.85727935,.00183181,82.5200,25.6896,341.3650,139.2934,0,U,16882,999,13531,.39516304E-4,.368E-5,0
AJISAI (EGS),1986-061A,2026-06-25T07:51:22.273632,12.44516735,.00111676,50.0085,122.3639,201.2569,230.7491,0,U,16908,999,48140,-.85851677E-4,-.11E-5,0
SL-14 R/B,1987-024B,2026-06-25T05:30:16.920000,14.86218130,.00166818,82.5281,351.6903,264.1249,95.8066,0,U,17567,999,10410,.43747266E-4,.409E-5,0
COSMOS 1833,1987-027A,2026-06-25T04:16:45.787872,14.13056122,.00230746,70.9199,100.0720,41.7439,318.5437,0,U,17589,999,2550,.18434444E-3,.297E-5,0
SL-16 R/B,1987-027B,2026-06-25T02:55:02.131680,14.17171834,.00066754,71.0033,50.1091,303.7628,56.2859,0,U,17590,999,3056,.11917063E-3,.192E-5,0
SL-14 R/B,1987-038B,2026-06-25T03:28:42.896352,14.85449353,.00196154,82.5004,195.5765,164.9411,195.2393,0,U,17912,999,9518,.36454133E-4,.34E-5,0
COSMOS 1844,1987-041A,2026-06-25T05:44:28.809312,14.14567928,.00324667,70.8966,167.3224,223.6878,136.1674,0,U,17973,999,1879,.93814282E-4,.133E-5,0
SL-14 R/B,1987-055B,2026-06-25T05:42:14.490144,14.85715764,.00211069,82.4988,247.6404,22.1563,338.0561,0,U,18153,999,8590,.33820815E-4,.319E-5,0
COSMOS 1867,1987-060A,2026-06-25T05:41:24.794592,14.31516568,.00166981,65.0114,5.5138,282.1498,77.7716,0,U,18187,999,3533,.27337906E-4,-.27E-6,0
SL-14 R/B,1988-001B,2026-06-25T05:45:57.109248,14.85614651,.00166288,82.5135,94.1980,240.5030,119.4528,0,U,18749,999,5799,.39402062E-4,.366E-5,0
COSMOS 1933,1988-020A,2026-06-25T06:33:33.493248,15.18760019,.00044062,82.5124,144.4273,158.8486,201.2932,0,U,18958,999,6655,.18082495E-3,.3787E-4,0
SL-3 R/B,1988-032B,2026-06-25T06:28:48.603936,15.20893048,.00244151,97.5255,159.3024,215.1368,144.8258,0,U,19046,999,6845,.18446674E-3,.4037E-4,0
SL-16 R/B,1988-039B,2026-06-25T07:04:01.641216,14.19630888,.0021767,71.0129,201.0152,180.9124,179.1966,0,U,19120,999,97365,-.10252127E-4,-.7E-6,0
COSMOS 1953,1988-050A,2026-06-25T03:04:55.422336,15.30074933,.00124237,82.5078,50.0262,101.9667,258.2967,0,U,19210,999,5420,.27897655E-3,.817E-4,0
SL-8 R/B,1988-053B,2026-06-24T13:46:23.651040,14.38969857,.00191906,74.0481,275.4413,68.0533,303.2286,0,U,19257,999,99197,.50273645E-4,.129E-5,0
COSMOS 1975,1988-093A,2026-06-25T06:25:09.969600,15.29421430,.00120474,82.5190,9.5731,144.7246,215.4793,0,U,19573,999,3584,.2800921E-3,.8038E-4,0
SL-14 R/B,1988-093B,2026-06-24T14:30:00.363168,14.85746692,.00217455,82.5316,301.6812,47.4134,323.1270,0,U,19574,999,1689,.37985432E-4,.356E-5,0
SL-16 R/B,1988-102B,2026-06-24T13:30:54.853632,14.16165619,.00153857,71.0002,286.6189,214.8443,145.1674,0,U,19650,999,94202,.14243849E-3,.234E-5,0
INTERCOSMOS 24,1989-080A,2026-06-25T02:49:06.221568,12.59672681,.11881812,82.6057,34.4849,43.5230,325.3660,0,U,20261,999,68032,.19798355E-3,.698E-5,0
SL-14 R/B,1989-080C,2026-06-25T05:48:35.341344,12.50573818,.12284447,82.5941,104.1331,298.9648,49.3696,0,U,20262,999,67359,.49676252E-4,.165E-5,0
DELTA 1 R/B,1989-089B,2026-06-25T01:58:21.810432,14.50735879,.00698975,97.0635,6.3770,142.2690,218.3439,0,U,20323,999,91130,.86135553E-4,.315E-5,0
ARIANE 40 R/B,1990-005H,2026-06-25T04:11:44.256192,14.39931161,.00090364,98.2956,233.5426,237.0842,122.9479,0,U,20443,999,90827,.83047679E-4,.219E-5,0
DELTA 2 R/B(1),1990-008B,2026-06-25T00:21:12.731616,15.69968570,.00644378,35.5990,183.2484,188.8546,171.1061,0,U,20453,999,94293,.64941232E-3,.92298E-3,0
