{"format":"tle-catalog-v1","generatedAt":"2026-06-25T16:01:17.978Z","count":6895,"entries":[{"name":"AJISAI (EGS)","line1":"1 16908U 86061A   26176.32734113 -.00000110  00000+0 -85852-4 0  9996","line2":"2 16908  50.0085 122.3639 0011167 201.2569 230.7491 12.44516735481402"},{"name":"ARIANE 40 R/B","line1":"1 20443U 90005H   26176.17481778  .00000219  00000+0  83048-4 0  9990","line2":"2 20443  98.2956 233.5426 0009036 237.0842 122.9479 14.39931161908271"},{"name":"COSMOS 1743","line1":"1 16719U 86034A   26175.87239563  .00054072  00000+0  49438-3 0  9997","line2":"2 16719  82.5275 320.5574 0004417 241.2941 118.7876 15.67599206196992"},{"name":"COSMOS 1833","line1":"1 17589U 87027A   26176.17830773  .00000297  00000+0  18434-3 0  9992","line2":"2 17589  70.9199 100.0720 0023074  41.7439 318.5437 14.13056122 25509"},{"name":"COSMOS 1844","line1":"1 17973U 87041A   26176.23922233  .00000133  00000+0  93814-4 0  9990","line2":"2 17973  70.8966 167.3224 0032466 223.6878 136.1674 14.14567928 18797"},{"name":"COSMOS 1867","line1":"1 18187U 87060A   26176.23709253 -.00000027  00000+0  27338-4 0  9995","line2":"2 18187  65.0114   5.5138 0016698 282.1498  77.7716 14.31516568 35339"},{"name":"COSMOS 1933","line1":"1 18958U 88020A   26176.27330432  .00003787  00000+0  18082-3 0  9991","line2":"2 18958  82.5124 144.4273 0004406 158.8486 201.2932 15.18760019 66553"},{"name":"COSMOS 1953","line1":"1 19210U 88050A   26176.12841924  .00008170  00000+0  27898-3 0  9999","line2":"2 19210  82.5078  50.0262 0012423 101.9667 258.2967 15.30074933 54207"},{"name":"COSMOS 1975","line1":"1 19573U 88093A   26176.26747650  .00008038  00000+0  28009-3 0  9992","line2":"2 19573  82.5190   9.5731 0012047 144.7246 215.4793 15.29421430 35841"},{"name":"DELTA 1 R/B","line1":"1 20323U 89089B   26176.08219688  .00000315  00000+0  86136-4 0  9994","line2":"2 20323  97.0635   6.3770 0069897 142.2690 218.3439 14.50735879911301"},{"name":"DELTA 2 R/B(1)","line1":"1 20453U 90008B   26176.01473069  .00092298  00000+0  64941-3 0  9999","line2":"2 20453  35.5990 183.2484 0064437 188.8546 171.1061 15.69968570942931"},{"name":"INTERCOSMOS 24","line1":"1 20261U 89080A   26176.11743312  .00000698  00000+0  19798-3 0  9999","line2":"2 20261  82.6057  34.4849 1188181  43.5230 325.3660 12.59672681680329"},{"name":"SL-12 R/B(2)","line1":"1 15772U 85042D   26176.25306192  .00000082  00000+0  58277-4 0  9993","line2":"2 15772  71.1066 220.4753 0036745 315.6457 111.9897 14.22007137129683"},{"name":"SL-14 R/B","line1":"1 15945U 85069B   26176.24676891  .00000422  00000+0  44767-4 0  9996","line2":"2 15945  82.5273 283.7861 0018442 191.3949 168.6853 14.86521290188814"},{"name":"SL-14 R/B","line1":"1 16496U 86006B   26176.19403383  .00000509  00000+0  51401-4 0  9997","line2":"2 16496  82.5266 158.5782 0074702 276.4018  82.8696 14.86952555165181"},{"name":"SL-14 R/B","line1":"1 16792U 86046B   26176.16768560  .00000412  00000+0  44605-4 0  9999","line2":"2 16792  82.4820 338.6334 0021890 230.3566 129.5719 14.85676206142361"},{"name":"SL-14 R/B","line1":"1 16882U 86055B   26176.10345594  .00000368  00000+0  39516-4 0  9996","line2":"2 16882  82.5200  25.6896 0018318 341.3650 139.2934 14.85727935135318"},{"name":"SL-14 R/B","line1":"1 17567U 87024B   26176.22936250  .00000409  00000+0  43747-4 0  9999","line2":"2 17567  82.5281 351.6903 0016681 264.1249  95.8066 14.86218130104105"},{"name":"SL-14 R/B","line1":"1 17912U 87038B   26176.14494093  .00000340  00000+0  36454-4 0  9994","line2":"2 17912  82.5004 195.5765 0019615 164.9411 195.2393 14.85449353 95188"},{"name":"SL-14 R/B","line1":"1 18153U 87055B   26176.23766771  .00000319  00000+0  33821-4 0  9997","line2":"2 18153  82.4988 247.6404 0021106  22.1563 338.0561 14.85715764 85901"},{"name":"SL-14 R/B","line1":"1 18749U 88001B   26176.24024432  .00000366  00000+0  39402-4 0  9995","line2":"2 18749  82.5135  94.1980 0016628 240.5030 119.4528 14.85614651 57994"},{"name":"SL-14 R/B","line1":"1 19574U 88093B   26175.60417087  .00000356  00000+0  37985-4 0  9997","line2":"2 19574  82.5316 301.6812 0021745  47.4134 323.1270 14.85746692 16890"},{"name":"SL-14 R/B","line1":"1 20262U 89080C   26176.24207571  .00000165  00000+0  49676-4 0  9994","line2":"2 20262  82.5941 104.1331 1228444 298.9648  49.3696 12.50573818673594"},{"name":"SL-16 R/B","line1":"1 16182U 85097B   26175.53081900  .00000253  00000+0  15077-3 0  9996","line2":"2 16182  71.0034 275.6171 0005390  95.5019 275.5350 14.16612263102361"},{"name":"SL-16 R/B","line1":"1 17590U 87027B   26176.12155245  .00000192  00000+0  11917-3 0  9996","line2":"2 17590  71.0033  50.1091 0006675 303.7628  56.2859 14.17171834 30563"},{"name":"SL-16 R/B","line1":"1 19120U 88039B   26176.29446344 -.00000070  00000+0 -10252-4 0  9991","line2":"2 19120  71.0129 201.0152 0021767 180.9124 179.1966 14.19630888973651"},{"name":"SL-16 R/B","line1":"1 19650U 88102B   26175.56313488  .00000234  00000+0  14244-3 0  9995","line2":"2 19650  71.0002 286.6189 0015385 214.8443 145.1674 14.16165619942026"},{"name":"SL-3 R/B","line1":"1 19046U 88032B   26176.27000699  .00004037  00000+0  18447-3 0  9996","line2":"2 19046  97.5255 159.3024 0024415 215.1368 144.8258 15.20893048 68456"},{"name":"SL-8 R/B","line1":"1 15483U 85006B   26176.16768635  .00000172  00000+0  65679-4 0  9990","line2":"2 15483  74.0460  63.3789 0019045 309.2657 171.6856 14.37838090169475"},{"name":"SL-8 R/B","line1":"1 19257U 88053B   26175.57388485  .00000129  00000+0  50274-4 0  9990","line2":"2 19257  74.0481 275.4413 0019190  68.0533 303.2286 14.38969857991970"}]}